{
"type": "FeatureCollection",
"name": "cafes-osm-preprocessed",
"crs": { "type": "name", "properties": { "name": "urn:ogc:def:crs:OGC:1.3:CRS84" } },
"features": [
{ "type": "Feature", "properties": { "name": "Fabrizi Espresso", "opening_hours": null, "website": null, "addr:street": null, "addr:housenumber": null, "address": "Universitätsplatz 8, 5020 Salzburg", "author_rating": null, "author_recommendation": null }, "geometry": { "type": "Point", "coordinates": [ 13.042511089361946, 47.799775851376047 ] } },
{ "type": "Feature", "properties": { "name": "7-Bürger Café", "opening_hours": "Tu,We,Fr,Su 08:00-18:00; Th off; Mo,Sa 08:00-12:00", "website": null, "addr:street": "Siebenbürgerstraße", "addr:housenumber": "8", "address": "Siebenbürgerstraße 8, 5020 Salzburg", "author_rating": null, "author_recommendation": null }, "geometry": { "type": "Point", "coordinates": [ 13.02033108344175, 47.818279786711095 ] } },
{ "type": "Feature", "properties": { "name": "Orangerie", "opening_hours": null, "website": null, "addr:street": null, "addr:housenumber": null, "address": "Fürstenweg 37, 5020 Salzburg", "author_rating": null, "author_recommendation": null }, "geometry": { "type": "Point", "coordinates": [ 13.060825328598234, 47.762071317733337 ] } },
{ "type": "Feature", "properties": { "name": "Cafe Habakuk", "opening_hours": "Mo-Th 07:00-19:00; Fr 07:00-20:00; Sa 07:00-18:00", "website": null, "addr:street": "Linzer Gasse", "addr:housenumber": "26", "address": "Linzer Gasse 26, 5020 Salzburg", "author_rating": null, "author_recommendation": null }, "geometry": { "type": "Point", "coordinates": [ 13.0464463, 47.8029492 ] } },
{ "type": "Feature", "properties": { "name": "Cafe Classic", "opening_hours": "Mo-Sa 08:00-19:30", "website": null, "addr:street": "Makartplatz", "addr:housenumber": "8", "address": "Makartplatz 8, 5020 Salzburg", "author_rating": null, "author_recommendation": null }, "geometry": { "type": "Point", "coordinates": [ 13.0438732, 47.8026888 ] } },
{ "type": "Feature", "properties": { "name": "Cafe Bazar", "opening_hours": "Mo-Sa 07:30-19:30; Su 09:00-18:00", "website": "https://www.cafe-bazar.at/", "addr:street": "Schwarzstraße", "addr:housenumber": "3", "address": "Schwarzstraße 3, 5020 Salzburg", "author_rating": "4/5", "author_recommendation": "Einspänner und Apfelstrudel", "author_comment": "Classic Viennese coffee house with a great ambience, but expensive." }, "geometry": { "type": "Point", "coordinates": [ 13.0438317, 47.8018642 ] } },
{ "type": "Feature", "properties": { "name": "220Grad Rupertinum", "opening_hours": "Tu,Th-Su 09:00-18:00; We 09:00-20:00", "website": "https://www.220grad.com/", "addr:street": null, "addr:housenumber": null, "address": "Wiener-Philharmoniker-Gasse 7, 5020 Salzburg", "author_rating": "3/5", "author_recommendation": "Cold Brew", "author_comment": "Great café but very touristy. The location in Nonntal is more pleasant." }, "geometry": { "type": "Point", "coordinates": [ 13.043139, 47.7982223 ] } },
{ "type": "Feature", "properties": { "name": "Kiosk Cafe Tomaselli", "opening_hours": null, "website": null, "addr:street": null, "addr:housenumber": null, "address": "Churfürststraße 1, 5020 Salzburg", "author_rating": null, "author_recommendation": null }, "geometry": { "type": "Point", "coordinates": [ 13.0450495, 47.7988743 ] } },
{ "type": "Feature", "properties": { "name": "Confiserie Konditorei Fürst", "opening_hours": "Mo-Sa 09:00-19:00; Su,PH 10:00-17:00", "website": null, "addr:street": "Brodgasse", "addr:housenumber": "13", "address": "Brodgasse 13, 5020 Salzburg", "author_rating": null, "author_recommendation": null }, "geometry": { "type": "Point", "coordinates": [ 13.0455572, 47.7991204 ] } },
{ "type": "Feature", "properties": { "name": "Café in Mozarts Geburtshaus", "opening_hours": null, "website": null, "addr:street": null, "addr:housenumber": null, "address": "Universitätsplatz 14, 5020 Salzburg", "author_rating": null, "author_recommendation": null }, "geometry": { "type": "Point", "coordinates": [ 13.0435715, 47.799627 ] } },
{ "type": "Feature", "properties": { "name": "Limiti", "opening_hours": null, "website": null, "addr:street": null, "addr:housenumber": null, "address": "Alpenstraße 107, 5020 Salzburg", "author_rating": null, "author_recommendation": null }, "geometry": { "type": "Point", "coordinates": [ 13.0709627, 47.7731725 ] } },
{ "type": "Feature", "properties": { "name": "Café Wernbacher", "opening_hours": "Mo-Sa 09:00-24:00; Su 09:00-18:00", "website": "http://www.cafewernbacher.at", "addr:street": "Franz-Josef-Straße", "addr:housenumber": "5", "address": "Franz-Josef-Straße 5, 5020 Salzburg", "author_rating": null, "author_recommendation": null }, "geometry": { "type": "Point", "coordinates": [ 13.0431176, 47.8072444 ] } },
{ "type": "Feature", "properties": { "name": "Café Fingerlos", "opening_hours": "Tu-Su 07:30-19:30; Mo off", "website": null, "addr:street": "Franz-Josef-Straße", "addr:housenumber": "9", "address": "Franz-Josef-Straße 9, 5020 Salzburg", "author_rating": "5/5", "author_recommendation": "Hauskaffee", "author_comment": "Always recommended at all times! Plenty of space, great offer." }, "geometry": { "type": "Point", "coordinates": [ 13.0436099, 47.8073839 ] } },
{ "type": "Feature", "properties": { "name": "Tula Bistro", "opening_hours": "Mo-Fr 11:00-21:00", "website": "https://www.tula-bistro.at/", "addr:street": null, "addr:housenumber": null, "address": "Hellbrunner Straße, 5020 Salzburg", "author_rating": null, "author_recommendation": null }, "geometry": { "type": "Point", "coordinates": [ 13.0548525, 47.7969396 ] } },
{ "type": "Feature", "properties": { "name": "Graf Zeppelin", "opening_hours": null, "website": null, "addr:street": null, "addr:housenumber": null, "address": "Graf-Zeppelin-Platz 19, 5020 Salzburg", "author_rating": null, "author_recommendation": null }, "geometry": { "type": "Point", "coordinates": [ 13.0026744, 47.8083356 ] } },
{ "type": "Feature", "properties": { "name": "coffee & soul", "opening_hours": "Mo-Fr 07:00+; Sa 09:00+", "website": null, "addr:street": "Linzer Gasse", "addr:housenumber": "43", "address": "Linzer Gasse 43, 5020 Salzburg", "author_rating": null, "author_recommendation": null }, "geometry": { "type": "Point", "coordinates": [ 13.0477565, 47.8041112 ] } },
{ "type": "Feature", "properties": { "name": "Cafe Sporthalle Alpenstraße", "opening_hours": null, "website": null, "addr:street": null, "addr:housenumber": null, "address": "Otto-Holzbauer-Straße 5, 5020 Salzburg", "author_rating": null, "author_recommendation": null }, "geometry": { "type": "Point", "coordinates": [ 13.0674311, 47.77645 ] } },
{ "type": "Feature", "properties": { "name": "Café Mozart", "opening_hours": "Mo-Sa 08:00-21:00; Su 09:00-21:00", "website": "https://www.cafemozartsalzburg.at/", "addr:street": "Getreidegasse", "addr:housenumber": "22", "address": "Getreidegasse 22, 5020 Salzburg", "author_rating": null, "author_recommendation": null }, "geometry": { "type": "Point", "coordinates": [ 13.0426305, 47.8000821 ] } },
{ "type": "Feature", "properties": { "name": "Cafe Würfelzucker", "opening_hours": "Mo-Su 09:00-18:00", "website": null, "addr:street": "Griesgasse", "addr:housenumber": "13", "address": "Griesgasse 13, 5020 Salzburg", "author_rating": "3/5", "author_recommendation": "Cake", "author_comment": "Coffee is okay, the view is good." }, "geometry": { "type": "Point", "coordinates": [ 13.0431902, 47.8005932 ] } },
{ "type": "Feature", "properties": { "name": "Afro Cafe", "opening_hours": "Mo-Th 09:00-23:00; Fr-Sa 09:00-24:00", "website": "https://www.afrocafe.at/", "addr:street": "Bürgerspitalplatz", "addr:housenumber": "5", "address": "Bürgerspitalplatz 5, 5020 Salzburg", "author_rating": "5/5", "author_recommendation": "Iced Coconut Coffee", "author_comment": "Be sure to try the Afro Coffee Specials! Generally great, sometimes a bit loud unfortunately." }, "geometry": { "type": "Point", "coordinates": [ 13.0397096, 47.8003541 ] } },
{ "type": "Feature", "properties": { "name": "Kramer's", "opening_hours": null, "website": null, "addr:street": "Griesgasse", "addr:housenumber": "15", "address": "Griesgasse 15, 5020 Salzburg", "author_rating": null, "author_recommendation": null }, "geometry": { "type": "Point", "coordinates": [ 13.0429888, 47.8004793 ] } },
{ "type": "Feature", "properties": { "name": "San Marco", "opening_hours": "Mo-Fr 08:00-23:00; Sa 08:00-19:00", "website": "http://cafesanmarco.at/about", "addr:street": null, "addr:housenumber": null, "address": "Makartplatz 5, 5020 Salzburg", "author_rating": null, "author_recommendation": null, "author_comment": null }, "geometry": { "type": "Point", "coordinates": [ 13.0442477, 47.8032841 ] } },
{ "type": "Feature", "properties": { "name": "My Mom's", "opening_hours": "09:00-18:00; PH 10:00-17:00", "website": null, "addr:street": "Linzer Gasse", "addr:housenumber": "28", "address": "Linzer Gasse 28, 5020 Salzburg", "author_rating": "2/5", "author_recommendation": "Cake", "author_comment": "They have the best cake in Salzburg! Unfortunately, there is not enough space to sit comfortably." }, "geometry": { "type": "Point", "coordinates": [ 13.0465739, 47.8030436 ] } },
{ "type": "Feature", "properties": { "name": "Café Konditorei Fürst Mirabellplatz", "opening_hours": "Mo-We, Fr 09:00-19:00; Th 08:00-19:00; Sa 09:00-18:00", "website": "https://www.original-mozartkugel.com/en/standorte/cafe_fuerst_mirabellplatz.php", "addr:street": "Mirabellplatz", "addr:housenumber": "5", "address": "Mirabellplatz 5, 5020 Salzburg", "author_rating": "3/5", "author_recommendation": "Mozartkugeln", "author_comment": "Probably best visited for the Mozartkugeln, but generally recommended." }, "geometry": { "type": "Point", "coordinates": [ 13.0434799, 47.8053355 ] } },
{ "type": "Feature", "properties": { "name": "Favorite Kamer", "opening_hours": null, "website": null, "addr:street": "Linzer Gasse", "addr:housenumber": "33", "address": "Linzer Gasse 33, 5020 Salzburg", "author_rating": null, "author_recommendation": null }, "geometry": { "type": "Point", "coordinates": [ 13.0469531, 47.8034633 ] } },
{ "type": "Feature", "properties": { "name": "Konditorei", "opening_hours": "Mo-Su 08:00-19:00", "website": null, "addr:street": null, "addr:housenumber": null, "address": "Linzer Gasse 53, 5020 Salzburg", "author_rating": null, "author_recommendation": null }, "geometry": { "type": "Point", "coordinates": [ 13.0488215, 47.8043717 ] } },
{ "type": "Feature", "properties": { "name": "Costa", "opening_hours": "Mo-Su 10:00-21:00", "website": null, "addr:street": null, "addr:housenumber": null, "address": "Bergstraße 18, 5020 Salzburg", "author_rating": null, "author_recommendation": null }, "geometry": { "type": "Point", "coordinates": [ 13.0448047, 47.8038317 ] } },
{ "type": "Feature", "properties": { "name": "Café Sacher - Salzachgrill", "opening_hours": "Mo-Su 08:00-20:00", "website": null, "addr:street": "Schwarzstraße", "addr:housenumber": "5-7", "address": "Schwarzstraße 5-7, 5020 Salzburg", "author_rating": null, "author_recommendation": null }, "geometry": { "type": "Point", "coordinates": [ 13.043585, 47.801989 ] } },
{ "type": "Feature", "properties": { "name": "Cafe Aulitzky", "opening_hours": null, "website": null, "addr:street": null, "addr:housenumber": null, "address": "5020, 5020 Salzburg", "author_rating": null, "author_recommendation": null }, "geometry": { "type": "Point", "coordinates": [ 13.0197948, 47.8131822 ] } },
{ "type": "Feature", "properties": { "name": "Flöckner", "opening_hours": null, "website": null, "addr:street": null, "addr:housenumber": null, "address": "Friedensstraße 4, 5020 Salzburg", "author_rating": null, "author_recommendation": null }, "geometry": { "type": "Point", "coordinates": [ 13.0655264, 47.7864187 ] } },
{ "type": "Feature", "properties": { "name": "Gugelhupf", "opening_hours": null, "website": null, "addr:street": null, "addr:housenumber": null, "address": "Aigner Straße 53, 5020 Salzburg", "author_rating": null, "author_recommendation": null }, "geometry": { "type": "Point", "coordinates": [ 13.0747307, 47.7907121 ] } },
{ "type": "Feature", "properties": { "name": "Bäckerei Forellenwegsiedlung", "opening_hours": "Mo-Fr 07:30-13:00,15:00-18:00;Su 07:00-11:00", "website": null, "addr:street": "Eugen-Müller-Straße", "addr:housenumber": "39", "address": "Eugen-Müller-Straße 39, 5020 Salzburg", "author_rating": null, "author_recommendation": null }, "geometry": { "type": "Point", "coordinates": [ 13.0024081, 47.8338713 ] } },
{ "type": "Feature", "properties": { "name": "La Familia", "opening_hours": "Mo-Fr 09:00-21:00; Sa 09:00-20:00", "website": null, "addr:street": "Reimsstraße", "addr:housenumber": "10", "address": "Reimsstraße 10, 5020 Salzburg", "author_rating": null, "author_recommendation": null }, "geometry": { "type": "Point", "coordinates": [ 13.0450489, 47.8249488 ] } },
{ "type": "Feature", "properties": { "name": "Bistro Le Coq en Pate", "opening_hours": "Mo-Su 11:00-21:30", "website": null, "addr:street": "Linzer Gasse", "addr:housenumber": "72a", "address": "Linzer Gasse 72a, 5020 Salzburg", "author_rating": null, "author_recommendation": null }, "geometry": { "type": "Point", "coordinates": [ 13.0488784, 47.80439160000001 ] } },
{ "type": "Feature", "properties": { "name": "Kaffee-Alchemie", "opening_hours": "Mo-Fr 07:30-18:00, Sa,Su,PH 10:00-18:00", "website": "https://kaffee-alchemie.at/", "addr:street": "Rudolfskai", "addr:housenumber": "38", "address": "Rudolfskai 38, 5020 Salzburg", "author_rating": "5/5", "author_recommendation": "Flat White", "author_comment": "Great coffee, friendly staff and cosy atmosphere. Highly recommended! Please note: unfortunately only cow's milk is available." }, "geometry": { "type": "Point", "coordinates": [ 13.0495341, 47.7989577 ] } },
{ "type": "Feature", "properties": { "name": "Café Tomaselli", "opening_hours": "Mo-Sa 07:00-19:00; Su 08:00-19:00", "website": "https://tomaselli.at/", "addr:street": "Alter Markt", "addr:housenumber": "9", "address": "Alter Markt 9, 5020 Salzburg", "author_rating": null, "author_recommendation": null, "author_comment": null }, "geometry": { "type": "Point", "coordinates": [ 13.0448825, 47.7992203 ] } },
{ "type": "Feature", "properties": { "name": "Shamata Café", "opening_hours": "Mo-Su 09:00-24:00", "website": null, "addr:street": "Roseggerstraße", "addr:housenumber": "23", "address": "Roseggerstraße 23, 5020 Salzburg", "author_rating": null, "author_recommendation": null }, "geometry": { "type": "Point", "coordinates": [ 13.0295321, 47.8112327 ] } },
{ "type": "Feature", "properties": { "name": "Carpe Diem Lounge", "opening_hours": null, "website": "https://www.hangar-7.com/de/day-night/carpe-diem-lounge-cafe/", "addr:street": null, "addr:housenumber": null, "address": "Wilhelm-Spazier-Straße 7, 5020 Salzburg", "author_rating": null, "author_recommendation": null }, "geometry": { "type": "Point", "coordinates": [ 13.0078875, 47.7936593 ] } },
{ "type": "Feature", "properties": { "name": "Cafe No. 5", "opening_hours": "Mo-Sa 09:00-17:00; Su 10:00-17:00; We,Th off", "website": "https://www.cafeno5-salzburg.at", "addr:street": "Universitätsplatz", "addr:housenumber": "15", "address": "Universitätsplatz 15, 5020 Salzburg", "author_rating": null, "author_recommendation": null }, "geometry": { "type": "Point", "coordinates": [ 13.043797, 47.7997588 ] } },
{ "type": "Feature", "properties": { "name": "Café Getreidegasse", "opening_hours": null, "website": null, "addr:street": null, "addr:housenumber": null, "address": "Getreidegasse 36, 5020 Salzburg", "author_rating": null, "author_recommendation": null }, "geometry": { "type": "Point", "coordinates": [ 13.0418015, 47.7999317 ] } },
{ "type": "Feature", "properties": { "name": "Johann", "opening_hours": "Mo-Su 07:30-22:30", "website": null, "addr:street": "Südtiroler Platz", "addr:housenumber": "1", "address": "Südtiroler Platz 1, 5020 Salzburg", "author_rating": "4/5", "author_recommendation": "Einspänner", "author_comment": "Surprisingly good. Classic coffee house ambience at the railway station. They also have a very good range of food." }, "geometry": { "type": "Point", "coordinates": [ 13.044888, 47.8127454 ] } },
{ "type": "Feature", "properties": { "name": "Rainberg", "opening_hours": "We-Sa 08:00-17:00; Su,PH 09:00-17:00", "website": "http://www.konditorei-rainberg.at/", "addr:street": "Neutorstraße", "addr:housenumber": "32C", "address": "Neutorstraße 32C, 5020 Salzburg", "author_rating": null, "author_recommendation": null }, "geometry": { "type": "Point", "coordinates": [ 13.0320119, 47.7977151 ] } },
{ "type": "Feature", "properties": { "name": "Cantina", "opening_hours": null, "website": null, "addr:street": null, "addr:housenumber": null, "address": "Schönleitenstraße, 5020 Salzburg", "author_rating": null, "author_recommendation": null }, "geometry": { "type": "Point", "coordinates": [ 13.017441, 47.8140867 ] } },
{ "type": "Feature", "properties": { "name": "Die Pâtissière", "opening_hours": "Tu-Fr 09:00-18:00; Sa 09:00-17:00", "website": "http://www.die-patissiere.at", "addr:street": "Imbergstraße", "addr:housenumber": "45", "address": "Imbergstraße 45, 5020 Salzburg", "author_rating": null, "author_recommendation": null }, "geometry": { "type": "Point", "coordinates": [ 13.0538125, 47.7998889 ] } },
{ "type": "Feature", "properties": { "name": "Das Kaffeehaus", "opening_hours": "Mo-Su 09:00-18:00", "website": "https://kaffeehaus-salzburg.at/", "addr:street": "Chiemseegasse", "addr:housenumber": "5", "address": "Chiemseegasse 5, 5020 Salzburg", "author_rating": "5/5", "author_recommendation": "Cold Brew", "author_comment": "Super cosy to sit in and also ideal for breakfast. One of the best cafés in the old town." }, "geometry": { "type": "Point", "coordinates": [ 13.0495427, 47.7978606 ] } },
{ "type": "Feature", "properties": { "name": "Röstzimmer 15", "opening_hours": "Mo-Fr 09:15-16:00", "website": null, "addr:street": "Wolf-Dietrich-Straße", "addr:housenumber": "15", "address": "Wolf-Dietrich-Straße 15, 5020 Salzburg", "author_rating": "3/5", "author_recommendation": "Espresso", "author_comment": "Very good coffee, but little space and short opening hours." }, "geometry": { "type": "Point", "coordinates": [ 13.0477305, 47.8051901 ] } },
{ "type": "Feature", "properties": { "name": "The Heart of Joy Cafe", "opening_hours": "Mo-Th 08:00-19:00; Fr-Su 08:00-20:30", "website": "https://www.heartofjoy.at/", "addr:street": "Franz-Josef-Straße", "addr:housenumber": "3", "address": "Franz-Josef-Straße 3, 5020 Salzburg", "author_rating": "2/5", "author_recommendation": "Food (Wraps)", "author_comment": "The coffee is okay, the food good, the ambience questionable." }, "geometry": { "type": "Point", "coordinates": [ 13.0428601, 47.8071742 ] } },
{ "type": "Feature", "properties": { "name": "MUS.Cafè Museum", "opening_hours": null, "website": "https://www.cafemus.at/", "addr:street": "Mozartplatz", "addr:housenumber": "1", "address": "Mozartplatz 1, 5020 Salzburg", "author_rating": "3/5", "author_recommendation": "Cappuccino", "author_comment": "Plenty of space and it's rarely crowded. However, the coffee is only okay and relatively expensive." }, "geometry": { "type": "Point", "coordinates": [ 13.0475043, 47.7986175 ] } },
{ "type": "Feature", "properties": { "name": "Wolferls Restaurant & Lounge", "opening_hours": null, "website": null, "addr:street": null, "addr:housenumber": null, "address": "Josef-Preis-Allee, 5020 Salzburg", "author_rating": null, "author_recommendation": null }, "geometry": { "type": "Point", "coordinates": [ 13.0564266, 47.7943004 ] } },
{ "type": "Feature", "properties": { "name": "Starbucks", "opening_hours": "Mo-Su,PH 08:00-20:30", "website": null, "addr:street": "Hagenauerplatz", "addr:housenumber": "1", "address": "Hagenauerplatz 1, 5020 Salzburg", "author_rating": "3/5", "author_recommendation": "Filter Coffee", "author_comment": "Just Starbucks ;)" }, "geometry": { "type": "Point", "coordinates": [ 13.0434256, 47.8003649 ] } },
{ "type": "Feature", "properties": { "name": "Fasties", "opening_hours": "Mo-Fr 09:00-20:00;Sa 09:00-17:00", "website": null, "addr:street": "Pfeifergasse", "addr:housenumber": "3", "address": "Pfeifergasse 3, 5020 Salzburg", "author_rating": null, "author_recommendation": null }, "geometry": { "type": "Point", "coordinates": [ 13.0491159, 47.7984985 ] } },
{ "type": "Feature", "properties": { "name": "Icezeit", "opening_hours": null, "website": "https://www.icezeit.at/", "addr:street": "Chiemseegasse", "addr:housenumber": "1", "address": "Chiemseegasse 1, 5020 Salzburg", "author_rating": "4/5", "author_recommendation": "Iced coffee (and ice cream)", "author_comment": "Perfect for refreshment in summer!" }, "geometry": { "type": "Point", "coordinates": [ 13.0491044, 47.7978238 ] } },
{ "type": "Feature", "properties": { "name": "Oldtimer", "opening_hours": null, "website": null, "addr:street": "Franz-Martin-Straße", "addr:housenumber": "27", "address": "Franz-Martin-Straße 27, 5020 Salzburg", "author_rating": null, "author_recommendation": null }, "geometry": { "type": "Point", "coordinates": [ 13.03233, 47.8154524 ] } },
{ "type": "Feature", "properties": { "name": "M-Cafe imToskanatrakt", "opening_hours": null, "website": "http://www.mensen.at/", "addr:street": "Sigmund-Haffner-Gasse", "addr:housenumber": "11", "address": "Sigmund-Haffner-Gasse 11, 5020 Salzburg", "author_rating": null, "author_recommendation": null }, "geometry": { "type": "Point", "coordinates": [ 13.0440864, 47.7984174 ] } },
{ "type": "Feature", "properties": { "name": "Cafè Melanie", "opening_hours": "Mo-Fr 09:00-18:00", "website": null, "addr:street": null, "addr:housenumber": null, "address": "Lindhofstraße 8, 5020 Salzburg", "author_rating": null, "author_recommendation": null }, "geometry": { "type": "Point", "coordinates": [ 13.0328494, 47.8059933 ] } },
{ "type": "Feature", "properties": { "name": "Das Memberg", "opening_hours": "We-Fr 11:30-20:00; Sa,Su 10:00-18:00", "website": null, "addr:street": "Schallmooser Hauptstraße", "addr:housenumber": "44", "address": "Schallmooser Hauptstraße 44, 5020 Salzburg", "author_rating": "4/5", "author_recommendation": "Matcha Latte", "author_comment": "A little off the centre, but great for sitting and chatting. Very nice owners." }, "geometry": { "type": "Point", "coordinates": [ 13.0580258, 47.8068417 ] } },
{ "type": "Feature", "properties": { "name": "Starbucks", "opening_hours": "Mo-Fr 06:30-20:30; Sa 07:00-21:00; Su 08:00-20:00", "website": null, "addr:street": "Südtiroler Platz", "addr:housenumber": "13", "address": "Südtiroler Platz 13, 5020 Salzburg", "author_rating": "3/5", "author_recommendation": "Filter Coffee", "author_comment": "Just Starbucks ;)" }, "geometry": { "type": "Point", "coordinates": [ 13.0449037, 47.813725 ] } },
{ "type": "Feature", "properties": { "name": "Elixhausner Landbäckerei", "opening_hours": "Mo-Fr 06:00-18:00, Sa 06:30-12:00", "website": null, "addr:street": null, "addr:housenumber": null, "address": "Itzlinger Hauptstraße 14, 5020 Salzburg", "author_rating": "2/5", "author_recommendation": "Bread", "author_comment": "Great baked goods but bad coffee." }, "geometry": { "type": "Point", "coordinates": [ 13.0444356, 47.8201135 ] } },
{ "type": "Feature", "properties": { "name": "Two Seasons", "opening_hours": "Mo-Fr 16:00-22:00; Sa,Su 11:00-22:00", "website": null, "addr:street": null, "addr:housenumber": null, "address": "Hermann-Bahr-Promenade, 5020 Salzburg", "author_rating": null, "author_recommendation": null }, "geometry": { "type": "Point", "coordinates": [ 13.0600671, 47.7983151 ] } },
{ "type": "Feature", "properties": { "name": "Coffee Fellows", "opening_hours": "Mo-Fr 09:00-19:00;Sa 09:00-18:00;Su off", "website": "http://www.coffee-fellows.de/", "addr:street": "Südtiroler Platz", "addr:housenumber": "13", "address": "Südtiroler Platz 13, 5020 Salzburg", "author_rating": null, "author_recommendation": null }, "geometry": { "type": "Point", "coordinates": [ 13.0448957, 47.8143411 ] } },
{ "type": "Feature", "properties": { "name": "Herr Leopold", "opening_hours": "Sa-Su 08:00-20:00; Mo-Fr 07:30-20:00", "website": "http://www.herr-leopold.com", "addr:street": "Wiener-Philharmoniker-Gasse", "addr:housenumber": "1", "address": "Wiener-Philharmoniker-Gasse 1, 5020 Salzburg", "author_rating": null, "author_recommendation": null }, "geometry": { "type": "Point", "coordinates": [ 13.0436371, 47.79908 ] } },
{ "type": "Feature", "properties": { "name": "Schatz-Konditorei", "opening_hours": "Mo-Fr 09:00-18:30; Sa 8:00-17:00", "website": null, "addr:street": "Getreidegasse", "addr:housenumber": "3", "address": "Getreidegasse 3, 5020 Salzburg", "author_rating": null, "author_recommendation": null }, "geometry": { "type": "Point", "coordinates": [ 13.0439382, 47.7996998 ] } },
{ "type": "Feature", "properties": { "name": "UNI:VERSUM", "opening_hours": "Mo-Sa 10:00-19:00", "website": "https://www.uni-salzburg.at", "addr:street": "Hofstallgasse", "addr:housenumber": "4", "address": "Hofstallgasse 4, 5020 Salzburg", "author_rating": null, "author_recommendation": null }, "geometry": { "type": "Point", "coordinates": [ 13.0415312, 47.7990096 ] } },
{ "type": "Feature", "properties": { "name": "Café my way", "opening_hours": "Su-Fr,PH 09:00-22:00", "website": null, "addr:street": "Kirchenstraße", "addr:housenumber": "55", "address": "Kirchenstraße 55, 5020 Salzburg", "author_rating": null, "author_recommendation": null }, "geometry": { "type": "Point", "coordinates": [ 13.0509664, 47.8245706 ] } },
{ "type": "Feature", "properties": { "name": "Panoramabar", "opening_hours": "Mo 10:00-18:00; Tu-We 15:00-19:00; Th-Fr 10:00-18:00; Sa 10:00-15:00; Su off", "website": null, "addr:street": "Schumacherstraße", "addr:housenumber": "14", "address": "Schumacherstraße 14, 5020 Salzburg", "author_rating": null, "author_recommendation": null }, "geometry": { "type": "Point", "coordinates": [ 13.0273611, 47.8133132 ] } },
{ "type": "Feature", "properties": { "name": "Cult im Volksgarten", "opening_hours": "Mo-Sa 10:00-22:00", "website": null, "addr:street": null, "addr:housenumber": null, "address": "Ignaz-Rieder-Kai 3, 5020 Salzburg", "author_rating": null, "author_recommendation": null }, "geometry": { "type": "Point", "coordinates": [ 13.0607477, 47.7956157 ] } },
{ "type": "Feature", "properties": { "name": "Coffeehouse", "opening_hours": "Mo-Sa 08:30-21:00", "website": null, "addr:street": "Linzer Gasse", "addr:housenumber": "39", "address": "Linzer Gasse 39, 5020 Salzburg", "author_rating": "2/5", "author_recommendation": "Breakfast", "author_comment": "Good breakfast, mediocore coffee and way too expensive. You can also only pay with cash." }, "geometry": { "type": "Point", "coordinates": [ 13.0467221, 47.8042677 ] } },
{ "type": "Feature", "properties": { "name": "GustaV", "opening_hours": "Th,Fr 11:00-20:00; Sa 10:00-18:00", "website": "https://www.gusta-v.at/", "addr:street": "Wolf-Dietrich-Straße", "addr:housenumber": "33", "address": "Wolf-Dietrich-Straße 33, 5020 Salzburg", "author_rating": null, "author_recommendation": null }, "geometry": { "type": "Point", "coordinates": [ 13.0466917, 47.8065484 ] } },
{ "type": "Feature", "properties": { "name": "Café am Kai", "opening_hours": "PH,We-Mo 08:30-21:00", "website": "https://cafeamkai.eu", "addr:street": "Müllner Hauptstraße", "addr:housenumber": "4", "address": "Müllner Hauptstraße 4, 5020 Salzburg", "author_rating": null, "author_recommendation": null }, "geometry": { "type": "Point", "coordinates": [ 13.0367777, 47.8051329 ] } },
{ "type": "Feature", "properties": { "name": "Timeless", "opening_hours": null, "website": null, "addr:street": null, "addr:housenumber": null, "address": "Priesterhausgasse, 5020 Salzburg", "author_rating": null, "author_recommendation": null }, "geometry": { "type": "Point", "coordinates": [ 13.0456479, 47.8026947 ] } },
{ "type": "Feature", "properties": { "name": "Café Sacher", "opening_hours": "Mo-Su 09:00-18:00", "website": null, "addr:street": "Schwarzstraße", "addr:housenumber": "5-7", "address": "Schwarzstraße 5-7, 5020 Salzburg", "author_rating": null, "author_recommendation": null }, "geometry": { "type": "Point", "coordinates": [ 13.0430538, 47.8023414 ] } },
{ "type": "Feature", "properties": { "name": "Café Glockenspiel", "opening_hours": "We-Su 10:00-18:00", "website": null, "addr:street": null, "addr:housenumber": null, "address": "Mozartplatz 2, 5020 Salzburg", "author_rating": null, "author_recommendation": null }, "geometry": { "type": "Point", "coordinates": [ 13.0471263, 47.7989725 ] } },
{ "type": "Feature", "properties": { "name": "The Bakery by Didi Meier", "opening_hours": "Mo-Th 09:00-19:30, Fr 09:00-21:00, Sa 09:00-18:00", "website": "https://didimaier.at/bakery/", "addr:street": "Europastraße", "addr:housenumber": "1", "address": "Europastraße 1, 5020 Salzburg", "author_rating": null, "author_recommendation": null }, "geometry": { "type": "Point", "coordinates": [ 13.0078197, 47.8162444 ] } },
{ "type": "Feature", "properties": { "name": "Kuchenfee", "opening_hours": "Mo-Sa 10:00-18:00", "website": null, "addr:street": "Paris-Lodron-Straße", "addr:housenumber": "19", "address": "Paris-Lodron-Straße 19, 5020 Salzburg", "author_rating": null, "author_recommendation": null }, "geometry": { "type": "Point", "coordinates": [ 13.0492837, 47.8063222 ] } },
{ "type": "Feature", "properties": { "name": "Steirer Cafe", "opening_hours": null, "website": null, "addr:street": null, "addr:housenumber": null, "address": "Ignaz-Harrer-Straße 50, 5020 Salzburg", "author_rating": null, "author_recommendation": null }, "geometry": { "type": "Point", "coordinates": [ 13.0270857, 47.8116715 ] } },
{ "type": "Feature", "properties": { "name": "Il Gelato", "opening_hours": null, "website": null, "addr:street": null, "addr:housenumber": null, "address": "Peter-Pfenninger-Straße, 5020 Salzburg", "author_rating": null, "author_recommendation": null }, "geometry": { "type": "Point", "coordinates": [ 13.0080439, 47.815034 ] } },
{ "type": "Feature", "properties": { "name": "Cafe Capuccino", "opening_hours": null, "website": null, "addr:street": null, "addr:housenumber": null, "address": "Europastraße 1, 5020 Salzburg", "author_rating": null, "author_recommendation": null }, "geometry": { "type": "Point", "coordinates": [ 13.0069636, 47.815632 ] } },
{ "type": "Feature", "properties": { "name": "Starbucks", "opening_hours": null, "website": null, "addr:street": null, "addr:housenumber": null, "address": "Europastraße 1, 5020 Salzburg", "author_rating": "3/5", "author_recommendation": "Filter Coffee", "author_comment": "Just Starbucks ;)" }, "geometry": { "type": "Point", "coordinates": [ 13.0080593, 47.8159315 ] } },
{ "type": "Feature", "properties": { "name": "Testa Rossa", "opening_hours": null, "website": null, "addr:street": null, "addr:housenumber": null, "address": "Rainerstraße 20, 5020 Salzburg", "author_rating": null, "author_recommendation": null }, "geometry": { "type": "Point", "coordinates": [ 13.0420332, 47.8104608 ] } },
{ "type": "Feature", "properties": { "name": "Caffè MuCo & Bistro", "opening_hours": "Mo-Fr 10:00-14:00,16:30-21:00; Sa,Su off", "website": null, "addr:street": "Siebenstädterstraße", "addr:housenumber": "16", "address": "Siebenstädterstraße 16, 5020 Salzburg", "author_rating": null, "author_recommendation": null }, "geometry": { "type": "Point", "coordinates": [ 13.0333356, 47.8123823 ] } },
{ "type": "Feature", "properties": { "name": "Café Pierre", "opening_hours": null, "website": null, "addr:street": null, "addr:housenumber": null, "address": "Maxglaner Hauptstraße 1C, 5020 Salzburg", "author_rating": null, "author_recommendation": null }, "geometry": { "type": "Point", "coordinates": [ 13.0262874, 47.7961902 ] } },
{ "type": "Feature", "properties": { "name": "Natoo", "opening_hours": "Mo-Su,PH 07:00-20:00", "website": null, "addr:street": null, "addr:housenumber": null, "address": "Südtiroler Platz 1, 5020 Salzburg", "author_rating": null, "author_recommendation": null }, "geometry": { "type": "Point", "coordinates": [ 13.0452364, 47.813193 ] } },
{ "type": "Feature", "properties": { "name": "Tiziana", "opening_hours": "PH,We-Mo 09:00-21:00", "website": null, "addr:street": null, "addr:housenumber": null, "address": "Franz-Josef-Straße 3, 5020 Salzburg", "author_rating": null, "author_recommendation": null }, "geometry": { "type": "Point", "coordinates": [ 13.0426848, 47.8071326 ] } },
{ "type": "Feature", "properties": { "name": "Lavazza", "opening_hours": null, "website": null, "addr:street": null, "addr:housenumber": null, "address": "Gnigler Straße 26, 5020 Salzburg", "author_rating": null, "author_recommendation": null }, "geometry": { "type": "Point", "coordinates": [ 13.053966, 47.8155744 ] } },
{ "type": "Feature", "properties": { "name": "Cup&Cino", "opening_hours": "Mo-Sa 08:00-18:00", "website": null, "addr:street": null, "addr:housenumber": null, "address": "Max-Ott-Platz 1, 5020 Salzburg", "author_rating": "3/5", "author_recommendation": "Drinks (not coffee)", "author_comment": "Coffee is okay but rather expensive. The drinks are quite nice, though." }, "geometry": { "type": "Point", "coordinates": [ 13.0411545, 47.8083367 ] } },
{ "type": "Feature", "properties": { "name": "nur coffee", "opening_hours": null, "website": null, "addr:street": null, "addr:housenumber": null, "address": "Bürgerspitalgasse, 5020 Salzburg", "author_rating": "5/5", "author_recommendation": "Waffalino", "author_comment": "Very creative and unique in Salzburg. Make sure to try one of their special offerings! " }, "geometry": { "type": "Point", "coordinates": [ 13.0401651, 47.7998873 ] } },
{ "type": "Feature", "properties": { "name": "Ricky's", "opening_hours": null, "website": null, "addr:street": null, "addr:housenumber": null, "address": "Friedensstraße 4, 5020 Salzburg", "author_rating": null, "author_recommendation": null }, "geometry": { "type": "Point", "coordinates": [ 13.0655696, 47.7862711 ] } },
{ "type": "Feature", "properties": { "name": "Café 19", "opening_hours": null, "website": null, "addr:street": null, "addr:housenumber": null, "address": "Alois-Schmiedbauer-Straße 3, 5020 Salzburg", "author_rating": null, "author_recommendation": null }, "geometry": { "type": "Point", "coordinates": [ 13.0386816, 47.8107421 ] } },
{ "type": "Feature", "properties": { "name": "Cafe Victory", "opening_hours": "PH,Mo-Su 08:00-22:00", "website": null, "addr:street": null, "addr:housenumber": null, "address": "Alois-Schmiedbauer-Straße 3, 5020 Salzburg", "author_rating": null, "author_recommendation": null }, "geometry": { "type": "Point", "coordinates": [ 13.038664, 47.8105522 ] } },
{ "type": "Feature", "properties": { "name": "We Love Coffee", "opening_hours": "Mo-Fr 07:30-18:00; Sa, Su 09:00-18:00", "website": null, "addr:street": null, "addr:housenumber": null, "address": "Mozartsteg, 5020 Salzburg", "author_rating": "4/5", "author_recommendation": "Cold Brew", "author_comment": "Perfect for a coffee to go when strolling along the Salzach. A bit expensive but worth the money." }, "geometry": { "type": "Point", "coordinates": [ 13.0487203, 47.7994116 ] } },
{ "type": "Feature", "properties": { "name": "Lindy's", "opening_hours": null, "website": null, "addr:street": null, "addr:housenumber": null, "address": "Kajetanerplatz 3, 5020 Salzburg", "author_rating": null, "author_recommendation": null }, "geometry": { "type": "Point", "coordinates": [ 13.0515267, 47.796647499999985 ] } },
{ "type": "Feature", "properties": { "name": "220Grad Nonntal", "opening_hours": "Tu-Fr 09:00-19:00; Sa 09:00-18:00", "website": null, "addr:street": null, "addr:housenumber": null, "address": "Nonntaler Hauptstraße 9, 5020 Salzburg", "author_rating": "5/5", "author_recommendation": "Flat White", "author_comment": "Probably serves the best coffee in Salzburg. Multiple Cute seating in the courtyard and generally great offerings." }, "geometry": { "type": "Point", "coordinates": [ 13.0525031, 47.7956311 ] } },
{ "type": "Feature", "properties": { "name": "Secession", "opening_hours": null, "website": null, "addr:street": null, "addr:housenumber": null, "address": "Krotachgasse 3, 5020 Salzburg", "author_rating": null, "author_recommendation": null }, "geometry": { "type": "Point", "coordinates": [ 13.0495664, 47.7971433 ] } },
{ "type": "Feature", "properties": { "name": "Darwin", "opening_hours": "Mo-Su,PH 09:00-24:00", "website": null, "addr:street": "Steingasse", "addr:housenumber": "1", "address": "Steingasse 1, 5020 Salzburg", "author_rating": "3/5", "author_recommendation": "Drinks (not coffee)", "author_comment": "Coffee is okay, drinks are great. It can become quite loud inside but they also have space outside in the summer." }, "geometry": { "type": "Point", "coordinates": [ 13.0452947, 47.8016524 ] } },
{ "type": "Feature", "properties": { "name": "basic Bistro", "opening_hours": "Mo-Fr 08:00-19:00; Sa 08:00-18:00", "website": "https://basicbio.de/maerkte", "addr:street": null, "addr:housenumber": null, "address": "Alpenstraße 75, 5020 Salzburg", "author_rating": null, "author_recommendation": null, "author_comment": null }, "geometry": { "type": "Point", "coordinates": [ 13.0680175, 47.7814782 ] } },
{ "type": "Feature", "properties": { "name": "Café Bistro Thomas", "opening_hours": "Mo 09:00-20:00; We-Sa 09:00-21:00; Su 10:00-14:00", "website": null, "addr:street": null, "addr:housenumber": null, "address": "Weiserstraße 14, 5020 Salzburg", "author_rating": null, "author_recommendation": null }, "geometry": { "type": "Point", "coordinates": [ 13.0457872, 47.8094718 ] } },
{ "type": "Feature", "properties": { "name": "Café Figaro", "opening_hours": null, "website": null, "addr:street": null, "addr:housenumber": null, "address": "Südtiroler Platz 3, 5020 Salzburg", "author_rating": null, "author_recommendation": null }, "geometry": { "type": "Point", "coordinates": [ 13.0433739, 47.8129109 ] } },
{ "type": "Feature", "properties": { "name": "Parkcafé Schloss Hellbrun", "opening_hours": null, "website": "https://www.parkcafehellbrunn.at/", "addr:street": null, "addr:housenumber": null, "address": "Fürstenweg, 5020 Salzburg", "author_rating": "3/5", "author_recommendation": "Espresso or drinks", "author_comment": "Good for a visit when in Hellbrunn. They offer coffee from 220Grad. Rather expensive, though." }, "geometry": { "type": "Point", "coordinates": [ 13.06125, 47.7623234 ] } },
{ "type": "Feature", "properties": { "name": "Alvera Montemio", "opening_hours": null, "website": "https://www.alvera-montemio.at", "addr:street": null, "addr:housenumber": null, "address": "Pfeifergasse 6, 5020 Salzburg", "author_rating": null, "author_recommendation": null }, "geometry": { "type": "Point", "coordinates": [ 13.0491022, 47.7982813 ] } },
{ "type": "Feature", "properties": { "name": "Asanyar", "opening_hours": null, "website": null, "addr:street": null, "addr:housenumber": null, "address": "Elisabethstraße 1a/2, 5020 Salzburg", "author_rating": null, "author_recommendation": null }, "geometry": { "type": "Point", "coordinates": [ 13.0416458, 47.810061399999988 ] } },
{ "type": "Feature", "properties": { "name": "Medak Creperia", "opening_hours": null, "website": null, "addr:street": "Saint-Julien-Straße", "addr:housenumber": "7A", "address": "Saint-Julien-Straße 7A, 5020 Salzburg", "author_rating": null, "author_recommendation": null }, "geometry": { "type": "Point", "coordinates": [ 13.0388022, 47.8110961 ] } },
{ "type": "Feature", "properties": { "name": "NarrenCastl", "opening_hours": "Mo-Su 17:00-22:00", "website": null, "addr:street": "Rudolf-Biebl-Straße", "addr:housenumber": "22", "address": "Rudolf-Biebl-Straße 22, 5020 Salzburg", "author_rating": null, "author_recommendation": null }, "geometry": { "type": "Point", "coordinates": [ 13.026837, 47.808588 ] } },
{ "type": "Feature", "properties": { "name": "kowalsky", "opening_hours": null, "website": null, "addr:street": null, "addr:housenumber": null, "address": "Guggenbichlerstraße, 5020 Salzburg", "author_rating": null, "author_recommendation": null }, "geometry": { "type": "Point", "coordinates": [ 13.0771442, 47.787941 ] } },
{ "type": "Feature", "properties": { "name": "The Neighborhood Café", "opening_hours": "Tu-Fr 07:00-14:00; Sa 09:00-16:00; Su 09:00-13:00", "website": null, "addr:street": "General-Keyes-Straße", "addr:housenumber": "24a", "address": "General-Keyes-Straße 24a, 5020 Salzburg", "author_rating": null, "author_recommendation": null }, "geometry": { "type": "Point", "coordinates": [ 13.0231495, 47.815993 ] } },
{ "type": "Feature", "properties": { "name": "CappuCone", "opening_hours": null, "website": null, "addr:street": null, "addr:housenumber": null, "address": "Europastraße 1, 5020 Salzburg", "author_rating": null, "author_recommendation": null }, "geometry": { "type": "Point", "coordinates": [ 13.0074251, 47.8154413 ] } },
{ "type": "Feature", "properties": { "name": "Coolinarik", "opening_hours": "Tu-Su 09:00-18:00", "website": null, "addr:street": null, "addr:housenumber": null, "address": "Münzgasse 1, 5020 Salzburg", "author_rating": null, "author_recommendation": null }, "geometry": { "type": "Point", "coordinates": [ 13.0397623, 47.800593 ] } },
{ "type": "Feature", "properties": { "name": "Lebensküche", "opening_hours": null, "website": "https://moosstrasse7.at/lebenskuche-cafe/", "addr:street": "Moosstraße", "addr:housenumber": "7", "address": "Moosstraße 7, 5020 Salzburg", "author_rating": null, "author_recommendation": null }, "geometry": { "type": "Point", "coordinates": [ 13.029682, 47.7941395 ] } },
{ "type": "Feature", "properties": { "name": "MUS.Tagesbar", "opening_hours": null, "website": "https://www.cafemus.at/tagesbar/", "addr:street": "Ignaz-Harrer-Straße", "addr:housenumber": "14", "address": "Ignaz-Harrer-Straße 14, 5020 Salzburg", "author_rating": null, "author_recommendation": null }, "geometry": { "type": "Point", "coordinates": [ 13.033702, 47.8112431 ] } },
{ "type": "Feature", "properties": { "name": "Ratio Coffee", "opening_hours": "Mo,We-Sa 08:00-18:00; Tu off; Su 09:00-15:00", "website": "https://ratiocoffee.at/", "addr:street": "Linzer Gasse", "addr:housenumber": "72a", "address": "Linzer Gasse 72a, 5020 Salzburg", "author_rating": "4/5", "author_recommendation": "Mocha", "author_comment": "Authentic Australian coffee with many special offerings that can't be found elsewhere. Unfortunately the seating space is limited and there are no toilets." }, "geometry": { "type": "Point", "coordinates": [ 13.0490328, 47.8044243 ] } },
{ "type": "Feature", "properties": { "name": "Ben's", "opening_hours": "Mo-Fr 08:00-18:00; Sa-Su,PH 09:00-18:00", "website": null, "addr:street": null, "addr:housenumber": null, "address": "Aigner Straße 4a, 5020 Salzburg", "author_rating": null, "author_recommendation": null }, "geometry": { "type": "Point", "coordinates": [ 13.0645527, 47.7985561 ] } },
{ "type": "Feature", "properties": { "name": "Tortelier", "opening_hours": null, "website": null, "addr:street": null, "addr:housenumber": null, "address": "Wolf-Dietrich-Straße 10, 5020 Salzburg", "author_rating": null, "author_recommendation": null }, "geometry": { "type": "Point", "coordinates": [ 13.0479263, 47.8052965 ] } },
{ "type": "Feature", "properties": { "name": "Mirabell Coffee Bar", "opening_hours": null, "website": null, "addr:street": null, "addr:housenumber": null, "address": "Paris-Lodron-Straße, 5020 Salzburg", "author_rating": null, "author_recommendation": null }, "geometry": { "type": "Point", "coordinates": [ 13.0439311, 47.804684 ] } },
{ "type": "Feature", "properties": { "name": "Viva", "opening_hours": null, "website": null, "addr:street": null, "addr:housenumber": null, "address": "Faberstraße, 5020 Salzburg", "author_rating": null, "author_recommendation": null }, "geometry": { "type": "Point", "coordinates": [ 13.0447066, 47.8054826 ] } },
{ "type": "Feature", "properties": { "name": "KAVA Coffee Roasters", "opening_hours": "Mo-Sa 09:00-17:30", "website": "https://kavacoffee.de", "addr:street": "Griesgasse", "addr:housenumber": "2a", "address": "Griesgasse 2a, 5020 Salzburg", "author_rating": "4/5", "author_recommendation": "Espresso", "author_comment": "Cute café in the old town with a local roastery in Rosenheim. Tip: They also offer short barista courses once every few months." }, "geometry": { "type": "Point", "coordinates": [ 13.0408457, 47.8008816 ] } },
{ "type": "Feature", "properties": { "name": "Why not", "opening_hours": "Mo-Th 11:00-23:00; Fr,Sa 11:00-24:00; Su,PH off", "website": null, "addr:street": null, "addr:housenumber": null, "address": "Laufenstraße 29, 5020 Salzburg", "author_rating": null, "author_recommendation": null }, "geometry": { "type": "Point", "coordinates": [ 13.0242548, 47.8210816 ] } },
{ "type": "Feature", "properties": { "name": "Boba and Chill", "opening_hours": null, "website": null, "addr:street": null, "addr:housenumber": null, "address": "Rudolfskai 6, 5020 Salzburg", "author_rating": null, "author_recommendation": null }, "geometry": { "type": "Point", "coordinates": [ 13.0449021, 47.8003152 ] } }
]
}
